STARLINK-31554          
1 59195U 24045T   26068.45706740 -.00001011  00000+0 -27212-4 0  9991
2 59195  43.0054  94.0421 0001472 276.0564  84.0120 15.27573123113120
FLOCK 4G-11             
1 62629U 25009W   26068.45629261  .00012672  00000+0  47740-3 0  9990
2 62629  97.3964 150.6183 0001611 333.5407  26.5750 15.27220677 63680
